[{"OBJECT_NAME":"STARLINK-2474","OBJECT_ID":"2021-027AS","EPOCH":"2025-07-29T20:43:40.584288","MEAN_MOTION":15.06402391,"ECCENTRICITY":0.0001572,"INCLINATION":53.054,"RA_OF_ASC_NODE":91.923,"ARG_OF_PERICENTER":73.3581,"MEAN_ANOMALY":286.7581,"EPHEMERIS_TYPE":0,"CLASSIFICATION_TYPE":"U","NORAD_CAT_ID":48132,"ELEMENT_SET_NO":999,"REV_AT_EPOCH":23882,"BSTAR":0.00031493,"MEAN_MOTION_DOT":4.413e-5,"MEAN_MOTION_DDOT":0},{"OBJECT_NAME":"STARLINK-2475","OBJECT_ID":"2021-027AT","EPOCH":"2025-07-29T20:38:22.376544","MEAN_MOTION":15.06398387,"ECCENTRICITY":0.0001091,"INCLINATION":53.053,"RA_OF_ASC_NODE":91.9423,"ARG_OF_PERICENTER":90.4209,"MEAN_ANOMALY":269.6905,"EPHEMERIS_TYPE":0,"CLASSIFICATION_TYPE":"U","NORAD_CAT_ID":48133,"ELEMENT_SET_NO":999,"REV_AT_EPOCH":23883,"BSTAR":2.6499e-5,"MEAN_MOTION_DOT":1.13e-6,"MEAN_MOTION_DDOT":0},{"OBJECT_NAME":"STARLINK-2476","OBJECT_ID":"2021-027AU","EPOCH":"2025-07-29T21:52:40.960416","MEAN_MOTION":15.0639786,"ECCENTRICITY":0.0001466,"INCLINATION":53.055,"RA_OF_ASC_NODE":91.7106,"ARG_OF_PERICENTER":101.3208,"MEAN_ANOMALY":258.7945,"EPHEMERIS_TYPE":0,"CLASSIFICATION_TYPE":"U","NORAD_CAT_ID":48134,"ELEMENT_SET_NO":999,"REV_AT_EPOCH":23883,"BSTAR":2.7748e-5,"MEAN_MOTION_DOT":1.32e-6,"MEAN_MOTION_DDOT":0},{"OBJECT_NAME":"STARLINK-2478","OBJECT_ID":"2021-027AV","EPOCH":"2025-07-30T09:03:28.319904","MEAN_MOTION":15.06395819,"ECCENTRICITY":0.0001443,"INCLINATION":53.0555,"RA_OF_ASC_NODE":94.7838,"ARG_OF_PERICENTER":92.9563,"MEAN_ANOMALY":267.1591,"EPHEMERIS_TYPE":0,"CLASSIFICATION_TYPE":"U","NORAD_CAT_ID":48135,"ELEMENT_SET_NO":999,"REV_AT_EPOCH":23843,"BSTAR":9.9687e-5,"MEAN_MOTION_DOT":1.204e-5,"MEAN_MOTION_DDOT":0},{"OBJECT_NAME":"STARLINK-2479","OBJECT_ID":"2021-027AW","EPOCH":"2025-07-29T22:03:23.139648","MEAN_MOTION":15.06399675,"ECCENTRICITY":0.0001507,"INCLINATION":53.0534,"RA_OF_ASC_NODE":92.1757,"ARG_OF_PERICENTER":86.6533,"MEAN_ANOMALY":273.4628,"EPHEMERIS_TYPE":0,"CLASSIFICATION_TYPE":"U","NORAD_CAT_ID":48136,"ELEMENT_SET_NO":999,"REV_AT_EPOCH":23883,"BSTAR":0.00028175,"MEAN_MOTION_DOT":3.918e-5,"MEAN_MOTION_DDOT":0},{"OBJECT_NAME":"STARLINK-2480","OBJECT_ID":"2021-027AX","EPOCH":"2025-07-29T21:28:47.198208","MEAN_MOTION":15.06403556,"ECCENTRICITY":0.0001406,"INCLINATION":53.0538,"RA_OF_ASC_NODE":71.7557,"ARG_OF_PERICENTER":87.6638,"MEAN_ANOMALY":272.4511,"EPHEMERIS_TYPE":0,"CLASSIFICATION_TYPE":"U","NORAD_CAT_ID":48137,"ELEMENT_SET_NO":999,"REV_AT_EPOCH":23871,"BSTAR":0.00015691,"MEAN_MOTION_DOT":2.057e-5,"MEAN_MOTION_DDOT":0},{"OBJECT_NAME":"STARLINK-2481","OBJECT_ID":"2021-027AY","EPOCH":"2025-07-30T09:17:22.865280","MEAN_MOTION":15.06397761,"ECCENTRICITY":0.00012,"INCLINATION":53.0541,"RA_OF_ASC_NODE":89.574,"ARG_OF_PERICENTER":91.0647,"MEAN_ANOMALY":269.048,"EPHEMERIS_TYPE":0,"CLASSIFICATION_TYPE":"U","NORAD_CAT_ID":48138,"ELEMENT_SET_NO":999,"REV_AT_EPOCH":23851,"BSTAR":0.00031575,"MEAN_MOTION_DOT":4.424e-5,"MEAN_MOTION_DDOT":0},{"OBJECT_NAME":"STARLINK-2482","OBJECT_ID":"2021-027AZ","EPOCH":"2025-07-29T23:30:51.725376","MEAN_MOTION":15.06398646,"ECCENTRICITY":0.0001362,"INCLINATION":53.0544,"RA_OF_ASC_NODE":71.4032,"ARG_OF_PERICENTER":86.0165,"MEAN_ANOMALY":274.0979,"EPHEMERIS_TYPE":0,"CLASSIFICATION_TYPE":"U","NORAD_CAT_ID":48139,"ELEMENT_SET_NO":999,"REV_AT_EPOCH":23873,"BSTAR":5.4854e-5,"MEAN_MOTION_DOT":5.36e-6,"MEAN_MOTION_DDOT":0},{"OBJECT_NAME":"STARLINK-2483","OBJECT_ID":"2021-027BA","EPOCH":"2025-07-30T01:35:42.214848","MEAN_MOTION":15.06385875,"ECCENTRICITY":0.0001495,"INCLINATION":53.0538,"RA_OF_ASC_NODE":91.566,"ARG_OF_PERICENTER":90.636,"MEAN_ANOMALY":269.48,"EPHEMERIS_TYPE":0,"CLASSIFICATION_TYPE":"U","NORAD_CAT_ID":48140,"ELEMENT_SET_NO":999,"REV_AT_EPOCH":23845,"BSTAR":0.000812,"MEAN_MOTION_DOT":0.00011829,"MEAN_MOTION_DDOT":0},{"OBJECT_NAME":"STARLINK-2485","OBJECT_ID":"2021-027BC","EPOCH":"2025-07-29T20:14:28.693824","MEAN_MOTION":15.06396641,"ECCENTRICITY":0.0001386,"INCLINATION":53.0539,"RA_OF_ASC_NODE":72.0169,"ARG_OF_PERICENTER":98.1839,"MEAN_ANOMALY":261.9307,"EPHEMERIS_TYPE":0,"CLASSIFICATION_TYPE":"U","NORAD_CAT_ID":48142,"ELEMENT_SET_NO":999,"REV_AT_EPOCH":23911,"BSTAR":9.2778e-5,"MEAN_MOTION_DOT":1.101e-5,"MEAN_MOTION_DDOT":0},{"OBJECT_NAME":"STARLINK-2486","OBJECT_ID":"2021-027BD","EPOCH":"2025-07-29T18:26:21.787008","MEAN_MOTION":15.06388514,"ECCENTRICITY":0.0001392,"INCLINATION":53.0559,"RA_OF_ASC_NODE":27.453,"ARG_OF_PERICENTER":95.4947,"MEAN_ANOMALY":264.62,"EPHEMERIS_TYPE":0,"CLASSIFICATION_TYPE":"U","NORAD_CAT_ID":48143,"ELEMENT_SET_NO":999,"REV_AT_EPOCH":23972,"BSTAR":5.7437e-5,"MEAN_MOTION_DOT":5.74e-6,"MEAN_MOTION_DDOT":0},{"OBJECT_NAME":"STARLINK-2487","OBJECT_ID":"2021-027BE","EPOCH":"2025-07-29T20:25:05.930976","MEAN_MOTION":15.06395806,"ECCENTRICITY":0.0001441,"INCLINATION":53.055,"RA_OF_ASC_NODE":71.9861,"ARG_OF_PERICENTER":93.8941,"MEAN_ANOMALY":266.2213,"EPHEMERIS_TYPE":0,"CLASSIFICATION_TYPE":"U","NORAD_CAT_ID":48144,"ELEMENT_SET_NO":999,"REV_AT_EPOCH":23910,"BSTAR":1.212e-5,"MEAN_MOTION_DOT":-1.01e-6,"MEAN_MOTION_DDOT":0},{"OBJECT_NAME":"STARLINK-2488","OBJECT_ID":"2021-027BF","EPOCH":"2025-07-29T22:05:57.398208","MEAN_MOTION":15.06392439,"ECCENTRICITY":0.0001198,"INCLINATION":53.0535,"RA_OF_ASC_NODE":71.6685,"ARG_OF_PERICENTER":86.9613,"MEAN_ANOMALY":273.1513,"EPHEMERIS_TYPE":0,"CLASSIFICATION_TYPE":"U","NORAD_CAT_ID":48145,"ELEMENT_SET_NO":999,"REV_AT_EPOCH":23912,"BSTAR":0.00076561,"MEAN_MOTION_DOT":0.00011138,"MEAN_MOTION_DDOT":0},{"OBJECT_NAME":"STARLINK-2491","OBJECT_ID":"2021-027BJ","EPOCH":"2025-07-29T22:51:03.831552","MEAN_MOTION":15.06403907,"ECCENTRICITY":0.0001421,"INCLINATION":53.0545,"RA_OF_ASC_NODE":91.5305,"ARG_OF_PERICENTER":85.3811,"MEAN_ANOMALY":274.7341,"EPHEMERIS_TYPE":0,"CLASSIFICATION_TYPE":"U","NORAD_CAT_ID":48148,"ELEMENT_SET_NO":999,"REV_AT_EPOCH":23883,"BSTAR":0.00025676,"MEAN_MOTION_DOT":3.545e-5,"MEAN_MOTION_DDOT":0},{"OBJECT_NAME":"STARLINK-2492","OBJECT_ID":"2021-027BK","EPOCH":"2025-07-29T21:34:06.072960","MEAN_MOTION":15.06398177,"ECCENTRICITY":0.0001369,"INCLINATION":53.0555,"RA_OF_ASC_NODE":71.7676,"ARG_OF_PERICENTER":87.7907,"MEAN_ANOMALY":272.3239,"EPHEMERIS_TYPE":0,"CLASSIFICATION_TYPE":"U","NORAD_CAT_ID":48149,"ELEMENT_SET_NO":999,"REV_AT_EPOCH":23911,"BSTAR":0.00020272,"MEAN_MOTION_DOT":2.739e-5,"MEAN_MOTION_DDOT":0},{"OBJECT_NAME":"STARLINK-2493","OBJECT_ID":"2021-027BL","EPOCH":"2025-07-29T21:39:24.240960","MEAN_MOTION":15.06399355,"ECCENTRICITY":0.0001347,"INCLINATION":53.0536,"RA_OF_ASC_NODE":71.7506,"ARG_OF_PERICENTER":91.7814,"MEAN_ANOMALY":268.3329,"EPHEMERIS_TYPE":0,"CLASSIFICATION_TYPE":"U","NORAD_CAT_ID":48150,"ELEMENT_SET_NO":999,"REV_AT_EPOCH":23912,"BSTAR":0.00016339,"MEAN_MOTION_DOT":2.153e-5,"MEAN_MOTION_DDOT":0},{"OBJECT_NAME":"STARLINK-2503","OBJECT_ID":"2021-027BM","EPOCH":"2025-07-29T21:44:41.568288","MEAN_MOTION":15.0639256,"ECCENTRICITY":0.0001261,"INCLINATION":53.0541,"RA_OF_ASC_NODE":71.7318,"ARG_OF_PERICENTER":100.9114,"MEAN_ANOMALY":259.2017,"EPHEMERIS_TYPE":0,"CLASSIFICATION_TYPE":"U","NORAD_CAT_ID":48151,"ELEMENT_SET_NO":999,"REV_AT_EPOCH":23912,"BSTAR":-0.00011329,"MEAN_MOTION_DOT":-1.968e-5,"MEAN_MOTION_DDOT":0},{"OBJECT_NAME":"STARLINK-2567","OBJECT_ID":"2021-036A","EPOCH":"2025-07-30T13:03:35.746272","MEAN_MOTION":15.0640332,"ECCENTRICITY":0.000118,"INCLINATION":53.0548,"RA_OF_ASC_NODE":323.871,"ARG_OF_PERICENTER":88.7544,"MEAN_ANOMALY":271.3581,"EPHEMERIS_TYPE":0,"CLASSIFICATION_TYPE":"U","NORAD_CAT_ID":48276,"ELEMENT_SET_NO":999,"REV_AT_EPOCH":23590,"BSTAR":7.4549e-5,"MEAN_MOTION_DOT":8.29e-6,"MEAN_MOTION_DDOT":0},{"OBJECT_NAME":"STARLINK-2569","OBJECT_ID":"2021-036B","EPOCH":"2025-07-30T11:30:03.377664","MEAN_MOTION":15.06402084,"ECCENTRICITY":0.0001242,"INCLINATION":53.0545,"RA_OF_ASC_NODE":289.1623,"ARG_OF_PERICENTER":84.8709,"MEAN_ANOMALY":275.2422,"EPHEMERIS_TYPE":0,"CLASSIFICATION_TYPE":"U","NORAD_CAT_ID":48277,"ELEMENT_SET_NO":999,"REV_AT_EPOCH":23638,"BSTAR":0.00018075,"MEAN_MOTION_DOT":2.412e-5,"MEAN_MOTION_DDOT":0},{"OBJECT_NAME":"STARLINK-2543","OBJECT_ID":"2021-036C","EPOCH":"2025-07-30T12:23:48.751008","MEAN_MOTION":15.0639962,"ECCENTRICITY":0.000118,"INCLINATION":53.0567,"RA_OF_ASC_NODE":304.0794,"ARG_OF_PERICENTER":102.3487,"MEAN_ANOMALY":257.7634,"EPHEMERIS_TYPE":0,"CLASSIFICATION_TYPE":"U","NORAD_CAT_ID":48278,"ELEMENT_SET_NO":999,"REV_AT_EPOCH":23617,"BSTAR":-3.7456e-5,"MEAN_MOTION_DOT":-8.39e-6,"MEAN_MOTION_DDOT":0},{"OBJECT_NAME":"STARLINK-2565","OBJECT_ID":"2021-036E","EPOCH":"2025-07-29T18:32:58.553088","MEAN_MOTION":15.0639117,"ECCENTRICITY":0.0001357,"INCLINATION":53.0559,"RA_OF_ASC_NODE":17.33,"ARG_OF_PERICENTER":94.336,"MEAN_ANOMALY":265.7785,"EPHEMERIS_TYPE":0,"CLASSIFICATION_TYPE":"U","NORAD_CAT_ID":48280,"ELEMENT_SET_NO":999,"REV_AT_EPOCH":23450,"BSTAR":8.1192e-5,"MEAN_MOTION_DOT":9.28e-6,"MEAN_MOTION_DDOT":0},{"OBJECT_NAME":"STARLINK-2558","OBJECT_ID":"2021-036G","EPOCH":"2025-07-29T17:49:50.461824","MEAN_MOTION":15.06398923,"ECCENTRICITY":0.0001304,"INCLINATION":53.0557,"RA_OF_ASC_NODE":2.4635,"ARG_OF_PERICENTER":92.3211,"MEAN_ANOMALY":267.7927,"EPHEMERIS_TYPE":0,"CLASSIFICATION_TYPE":"U","NORAD_CAT_ID":48282,"ELEMENT_SET_NO":999,"REV_AT_EPOCH":23471,"BSTAR":0.00013873,"MEAN_MOTION_DOT":1.785e-5,"MEAN_MOTION_DDOT":0},{"OBJECT_NAME":"STARLINK-2516","OBJECT_ID":"2021-036H","EPOCH":"2025-07-29T17:44:31.503264","MEAN_MOTION":15.06380462,"ECCENTRICITY":0.0001147,"INCLINATION":53.0553,"RA_OF_ASC_NODE":2.4786,"ARG_OF_PERICENTER":117.889,"MEAN_ANOMALY":242.2215,"EPHEMERIS_TYPE":0,"CLASSIFICATION_TYPE":"U","NORAD_CAT_ID":48283,"ELEMENT_SET_NO":999,"REV_AT_EPOCH":23529,"BSTAR":-0.00035314,"MEAN_MOTION_DOT":-5.535e-5,"MEAN_MOTION_DDOT":0}]
